[{"OBJECT_NAME":"YAOGAN-21","OBJECT_ID":"2014-053A","EPOCH":"2026-03-09T23:50:42.268992","MEAN_MOTION":15.2493211,"ECCENTRICITY":0.00100966,"INCLINATION":97.1617,"RA_OF_ASC_NODE":113.5215,"ARG_OF_PERICENTER":86.0219,"MEAN_ANOMALY":274.2173,"EPHEMERIS_TYPE":0,"CLASSIFICATION_TYPE":"U","NORAD_CAT_ID":40143,"ELEMENT_SET_NO":999,"REV_AT_EPOCH":63983,"BSTAR":0.00033036554,"MEAN_MOTION_DOT":8.172e-5,"MEAN_MOTION_DDOT":0},{"OBJECT_NAME":"SCS-01 K","OBJECT_ID":"2025-100K","EPOCH":"2026-03-09T23:34:24.068928","MEAN_MOTION":15.20905927,"ECCENTRICITY":0.0009688,"INCLINATION":97.3704,"RA_OF_ASC_NODE":143.9421,"ARG_OF_PERICENTER":311.1464,"MEAN_ANOMALY":48.8935,"EPHEMERIS_TYPE":0,"CLASSIFICATION_TYPE":"U","NORAD_CAT_ID":63991,"ELEMENT_SET_NO":999,"REV_AT_EPOCH":4554,"BSTAR":0.00099261902,"MEAN_MOTION_DOT":0.00021955,"MEAN_MOTION_DDOT":0}]
